ISS (ZARYA)             
1 25544U 98067A   25145.82661484  .00010926  00000+0  20097-3 0  9994
2 25544  51.6367  57.8636 0002082 149.0639 211.0473 15.49737512511693
